[{"CCSDS_OMM_VERS":"2.0","COMMENT":"GENERATED VIA SPACE-TRACK.ORG API","CREATION_DATE":"2023-04-29T18:28:00","ORIGINATOR":"18 SPCS","OBJECT_NAME":"KSF3-C","OBJECT_ID":"2023-001K","CENTER_NAME":"EARTH","REF_FRAME":"TEME","TIME_SYSTEM":"UTC","MEAN_ELEMENT_THEORY":"SGP4","EPOCH":"2023-04-29T13:22:53.779296","MEAN_MOTION":"15.15700499","ECCENTRICITY":"0.00114430","INCLINATION":"97.4812","RA_OF_ASC_NODE":"179.7927","ARG_OF_PERICENTER":"175.5527","MEAN_ANOMALY":"294.2978","EPHEMERIS_TYPE":"0","CLASSIFICATION_TYPE":"U","NORAD_CAT_ID":"55018","ELEMENT_SET_NO":"999","REV_AT_EPOCH":"1769","BSTAR":"0.00064997000000","MEAN_MOTION_DOT":"0.00012343","MEAN_MOTION_DDOT":"0.0000000000000","SEMIMAJOR_AXIS":"6896.990","PERIOD":"95.006","APOAPSIS":"526.747","PERIAPSIS":"510.962","OBJECT_TYPE":"PAYLOAD","RCS_SIZE":"MEDIUM","COUNTRY_CODE":"LUXE","LAUNCH_DATE":"2023-01-03","SITE":"AFETR","DECAY_DATE":null,"FILE":"3896517","GP_ID":"230932052","TLE_LINE0":"0 KSF3-C","TLE_LINE1":"1 55018U 23001K   23119.55756689  .00012343  00000-0  64997-3 0  9993","TLE_LINE2":"2 55018  97.4812 179.7927 0011443 175.5527 294.2978 15.15700499 17694"},{"CCSDS_OMM_VERS":"2.0","COMMENT":"GENERATED VIA SPACE-TRACK.ORG API","CREATION_DATE":"2023-04-29T22:46:12","ORIGINATOR":"18 SPCS","OBJECT_NAME":"KSF3-C","OBJECT_ID":"2023-001K","CENTER_NAME":"EARTH","REF_FRAME":"TEME","TIME_SYSTEM":"UTC","MEAN_ELEMENT_THEORY":"SGP4","EPOCH":"2023-04-29T18:16:16.746816","MEAN_MOTION":"15.15705160","ECCENTRICITY":"0.00114090","INCLINATION":"97.4812","RA_OF_ASC_NODE":"179.9935","ARG_OF_PERICENTER":"175.0932","MEAN_ANOMALY":"325.7519","EPHEMERIS_TYPE":"0","CLASSIFICATION_TYPE":"U","NORAD_CAT_ID":"55018","ELEMENT_SET_NO":"999","REV_AT_EPOCH":"1772","BSTAR":"0.00064666000000","MEAN_MOTION_DOT":"0.00012281","MEAN_MOTION_DDOT":"0.0000000000000","SEMIMAJOR_AXIS":"6896.976","PERIOD":"95.005","APOAPSIS":"526.709","PERIAPSIS":"510.972","OBJECT_TYPE":"PAYLOAD","RCS_SIZE":"MEDIUM","COUNTRY_CODE":"LUXE","LAUNCH_DATE":"2023-01-03","SITE":"AFETR","DECAY_DATE":null,"FILE":"3896599","GP_ID":"230935216","TLE_LINE0":"0 KSF3-C","TLE_LINE1":"1 55018U 23001K   23119.76130494  .00012281  00000-0  64666-3 0  9990","TLE_LINE2":"2 55018  97.4812 179.9935 0011409 175.0932 325.7519 15.15705160 17727"},{"CCSDS_OMM_VERS":"2.0","COMMENT":"GENERATED VIA SPACE-TRACK.ORG API","CREATION_DATE":"2023-04-30T06:36:12","ORIGINATOR":"18 SPCS","OBJECT_NAME":"KSF3-C","OBJECT_ID":"2023-001K","CENTER_NAME":"EARTH","REF_FRAME":"TEME","TIME_SYSTEM":"UTC","MEAN_ELEMENT_THEORY":"SGP4","EPOCH":"2023-04-30T03:17:06.068256","MEAN_MOTION":"15.15714458","ECCENTRICITY":"0.00114580","INCLINATION":"97.4812","RA_OF_ASC_NODE":"180.3634","ARG_OF_PERICENTER":"173.9167","MEAN_ANOMALY":"214.9500","EPHEMERIS_TYPE":"0","CLASSIFICATION_TYPE":"U","NORAD_CAT_ID":"55018","ELEMENT_SET_NO":"999","REV_AT_EPOCH":"1778","BSTAR":"0.00064670000000","MEAN_MOTION_DOT":"0.00012285","MEAN_MOTION_DDOT":"0.0000000000000","SEMIMAJOR_AXIS":"6896.947","PERIOD":"95.005","APOAPSIS":"526.715","PERIAPSIS":"510.910","OBJECT_TYPE":"PAYLOAD","RCS_SIZE":"MEDIUM","COUNTRY_CODE":"LUXE","LAUNCH_DATE":"2023-01-03","SITE":"AFETR","DECAY_DATE":null,"FILE":"3896913","GP_ID":"230941705","TLE_LINE0":"0 KSF3-C","TLE_LINE1":"1 55018U 23001K   23120.13687579  .00012285  00000-0  64670-3 0  9993","TLE_LINE2":"2 55018  97.4812 180.3634 0011458 173.9167 214.9500 15.15714458 17785"},{"CCSDS_OMM_VERS":"2.0","COMMENT":"GENERATED VIA SPACE-TRACK.ORG API","CREATION_DATE":"2023-04-30T15:06:13","ORIGINATOR":"18 SPCS","OBJECT_NAME":"KSF3-C","OBJECT_ID":"2023-001K","CENTER_NAME":"EARTH","REF_FRAME":"TEME","TIME_SYSTEM":"UTC","MEAN_ELEMENT_THEORY":"SGP4","EPOCH":"2023-04-30T11:37:43.691808","MEAN_MOTION":"15.15723292","ECCENTRICITY":"0.00114280","INCLINATION":"97.4811","RA_OF_ASC_NODE":"180.7063","ARG_OF_PERICENTER":"172.7611","MEAN_ANOMALY":"311.9262","EPHEMERIS_TYPE":"0","CLASSIFICATION_TYPE":"U","NORAD_CAT_ID":"55018","ELEMENT_SET_NO":"999","REV_AT_EPOCH":"1783","BSTAR":"0.00064850000000","MEAN_MOTION_DOT":"0.00012322","MEAN_MOTION_DDOT":"0.0000000000000","SEMIMAJOR_AXIS":"6896.921","PERIOD":"95.004","APOAPSIS":"526.667","PERIAPSIS":"510.904","OBJECT_TYPE":"PAYLOAD","RCS_SIZE":"MEDIUM","COUNTRY_CODE":"LUXE","LAUNCH_DATE":"2023-01-03","SITE":"AFETR","DECAY_DATE":null,"FILE":"3897202","GP_ID":"230947552","TLE_LINE0":"0 KSF3-C","TLE_LINE1":"1 55018U 23001K   23120.48453347  .00012322  00000-0  64850-3 0  9997","TLE_LINE2":"2 55018  97.4811 180.7063 0011428 172.7611 311.9262 15.15723292 17837"},{"CCSDS_OMM_VERS":"2.0","COMMENT":"GENERATED VIA SPACE-TRACK.ORG API","CREATION_DATE":"2023-04-30T17:27:06","ORIGINATOR":"18 SPCS","OBJECT_NAME":"KSF3-C","OBJECT_ID":"2023-001K","CENTER_NAME":"EARTH","REF_FRAME":"TEME","TIME_SYSTEM":"UTC","MEAN_ELEMENT_THEORY":"SGP4","EPOCH":"2023-04-30T11:37:43.691808","MEAN_MOTION":"15.15723292","ECCENTRICITY":"0.00114280","INCLINATION":"97.4811","RA_OF_ASC_NODE":"180.7063","ARG_OF_PERICENTER":"172.7611","MEAN_ANOMALY":"311.9262","EPHEMERIS_TYPE":"0","CLASSIFICATION_TYPE":"U","NORAD_CAT_ID":"55018","ELEMENT_SET_NO":"999","REV_AT_EPOCH":"1783","BSTAR":"0.00064850000000","MEAN_MOTION_DOT":"0.00012322","MEAN_MOTION_DDOT":"0.0000000000000","SEMIMAJOR_AXIS":"6896.921","PERIOD":"95.004","APOAPSIS":"526.667","PERIAPSIS":"510.904","OBJECT_TYPE":"PAYLOAD","RCS_SIZE":"MEDIUM","COUNTRY_CODE":"LUXE","LAUNCH_DATE":"2023-01-03","SITE":"AFETR","DECAY_DATE":null,"FILE":"3897442","GP_ID":"230979812","TLE_LINE0":"0 KSF3-C","TLE_LINE1":"1 55018U 23001K   23120.48453347  .00012322  00000-0  64850-3 0  9997","TLE_LINE2":"2 55018  97.4811 180.7063 0011428 172.7611 311.9262 15.15723292 17837"},{"CCSDS_OMM_VERS":"2.0","COMMENT":"GENERATED VIA SPACE-TRACK.ORG API","CREATION_DATE":"2023-04-30T22:56:12","ORIGINATOR":"18 SPCS","OBJECT_NAME":"KSF3-C","OBJECT_ID":"2023-001K","CENTER_NAME":"EARTH","REF_FRAME":"TEME","TIME_SYSTEM":"UTC","MEAN_ELEMENT_THEORY":"SGP4","EPOCH":"2023-04-30T19:28:27.261696","MEAN_MOTION":"15.15731298","ECCENTRICITY":"0.00114210","INCLINATION":"97.4808","RA_OF_ASC_NODE":"181.0283","ARG_OF_PERICENTER":"171.6343","MEAN_ANOMALY":"295.6504","EPHEMERIS_TYPE":"0","CLASSIFICATION_TYPE":"U","NORAD_CAT_ID":"55018","ELEMENT_SET_NO":"999","REV_AT_EPOCH":"1788","BSTAR":"0.00064780000000","MEAN_MOTION_DOT":"0.00012312","MEAN_MOTION_DDOT":"0.0000000000000","SEMIMAJOR_AXIS":"6896.896","PERIOD":"95.004","APOAPSIS":"526.638","PERIAPSIS":"510.884","OBJECT_TYPE":"PAYLOAD","RCS_SIZE":"MEDIUM","COUNTRY_CODE":"LUXE","LAUNCH_DATE":"2023-01-03","SITE":"AFETR","DECAY_DATE":null,"FILE":"3897546","GP_ID":"230982353","TLE_LINE0":"0 KSF3-C","TLE_LINE1":"1 55018U 23001K   23120.81142664  .00012312  00000-0  64780-3 0  9992","TLE_LINE2":"2 55018  97.4808 181.0283 0011421 171.6343 295.6504 15.15731298 17881"},{"CCSDS_OMM_VERS":"2.0","COMMENT":"GENERATED VIA SPACE-TRACK.ORG API","CREATION_DATE":"2023-05-01T06:56:12","ORIGINATOR":"18 SPCS","OBJECT_NAME":"KSF3-C","OBJECT_ID":"2023-001K","CENTER_NAME":"EARTH","REF_FRAME":"TEME","TIME_SYSTEM":"UTC","MEAN_ELEMENT_THEORY":"SGP4","EPOCH":"2023-05-01T03:17:37.131648","MEAN_MOTION":"15.15739367","ECCENTRICITY":"0.00114380","INCLINATION":"97.4809","RA_OF_ASC_NODE":"181.3492","ARG_OF_PERICENTER":"170.5804","MEAN_ANOMALY":"273.3980","EPHEMERIS_TYPE":"0","CLASSIFICATION_TYPE":"U","NORAD_CAT_ID":"55018","ELEMENT_SET_NO":"999","REV_AT_EPOCH":"1793","BSTAR":"0.00064785000000","MEAN_MOTION_DOT":"0.00012316","MEAN_MOTION_DDOT":"0.0000000000000","SEMIMAJOR_AXIS":"6896.872","PERIOD":"95.003","APOAPSIS":"526.625","PERIAPSIS":"510.848","OBJECT_TYPE":"PAYLOAD","RCS_SIZE":"MEDIUM","COUNTRY_CODE":"LUXE","LAUNCH_DATE":"2023-01-03","SITE":"AFETR","DECAY_DATE":null,"FILE":"3897802","GP_ID":"230987800","TLE_LINE0":"0 KSF3-C","TLE_LINE1":"1 55018U 23001K   23121.13723532  .00012316  00000-0  64785-3 0  9996","TLE_LINE2":"2 55018  97.4809 181.3492 0011438 170.5804 273.3980 15.15739367 17937"},{"CCSDS_OMM_VERS":"2.0","COMMENT":"GENERATED VIA SPACE-TRACK.ORG API","CREATION_DATE":"2023-05-01T14:56:13","ORIGINATOR":"18 SPCS","OBJECT_NAME":"KSF3-C","OBJECT_ID":"2023-001K","CENTER_NAME":"EARTH","REF_FRAME":"TEME","TIME_SYSTEM":"UTC","MEAN_ELEMENT_THEORY":"SGP4","EPOCH":"2023-05-01T11:24:27.834624","MEAN_MOTION":"15.15747654","ECCENTRICITY":"0.00114180","INCLINATION":"97.4810","RA_OF_ASC_NODE":"181.6823","ARG_OF_PERICENTER":"169.4489","MEAN_ANOMALY":"318.1873","EPHEMERIS_TYPE":"0","CLASSIFICATION_TYPE":"U","NORAD_CAT_ID":"55018","ELEMENT_SET_NO":"999","REV_AT_EPOCH":"1798","BSTAR":"0.00064726000000","MEAN_MOTION_DOT":"0.00012307","MEAN_MOTION_DDOT":"0.0000000000000","SEMIMAJOR_AXIS":"6896.847","PERIOD":"95.003","APOAPSIS":"526.586","PERIAPSIS":"510.837","OBJECT_TYPE":"PAYLOAD","RCS_SIZE":"MEDIUM","COUNTRY_CODE":"LUXE","LAUNCH_DATE":"2023-01-03","SITE":"AFETR","DECAY_DATE":null,"FILE":"3898053","GP_ID":"230993265","TLE_LINE0":"0 KSF3-C","TLE_LINE1":"1 55018U 23001K   23121.47532216  .00012307  00000-0  64726-3 0  9995","TLE_LINE2":"2 55018  97.4810 181.6823 0011418 169.4489 318.1873 15.15747654 17986"}]